STARLINK-35444          
1 66511U 25263AC  25342.58335648  .00101169  00000+0  17121-2 0  9996
2 66511  43.0001 149.3535 0001553 280.7850 221.9494 15.50513491  4967
STARLINK-35366          
1 66512U 25263AD  25342.58335648  .00031640  00000+0  54338-3 0  9995
2 66512  43.0000 149.3437 0001529 285.0300 221.5350 15.50557534  4962
STARLINK-35692          
1 66513U 25263AE  25342.58335648 -.00071491  00000+0 -12233-2 0  9993
2 66513  43.0000 149.3583 0001356 266.5536 234.2890 15.50593785  4966
SENTINEL-6B             
1 66514U 25264A   25342.58450293 -.00000033  00000+0  11898-3 0  9999
2 66514  66.0385 171.0841 0021039 268.3306  91.5301 12.84032003  2753
STARLINK-35924          
1 66516U 25265A   25342.58335648 -.02069911  00000+0 -31948-1 0  9997
2 66516  43.0003  78.3649 0001279 273.4152  20.3255 15.56463649  4309
STARLINK-35937          
1 66517U 25265B   25342.58335648 -.02074524  00000+0 -32022-1 0  9998
2 66517  43.0001  78.3606 0001472 281.0793  14.5762 15.56466364  4329
STARLINK-35962          
1 66518U 25265C   25342.58335648 -.02070102  00000+0 -31950-1 0  9996
2 66518  43.0001  78.3555 0001275 281.7424  15.8293 15.56464360  4329
STARLINK-35931          
1 66519U 25265D   25342.58335648 -.02067797  00000+0 -31912-1 0  9991
2 66519  43.0003  78.3505 0001267 279.4524  20.0370 15.56463228  4329
STARLINK-35952          
1 66520U 25265E   25342.58335648 -.02065947  00000+0 -31883-1 0  9995
2 66520  43.0002  78.3455 0001283 281.4946  19.9140 15.56460548  4327
STARLINK-35915          
1 66521U 25265F   25342.58335648 -.02075770  00000+0 -32045-1 0  9992
2 66521  43.0002  78.3405 0001299 276.9068  26.4182 15.56466829  4321
STARLINK-35946          
1 66522U 25265G   25342.58335648 -.02076938  00000+0 -32063-1 0  9990
2 66522  43.0001  78.3358 0001521 282.0402  23.2019 15.56466535  4324
STARLINK-35969          
1 66523U 25265H   25342.58335648 -.02073950  00000+0 -32012-1 0  9996
2 66523  43.0004  78.3310 0001514 280.0427  27.1153 15.56466031  4326
