CCSDS_OMM_VERS = 2.0
CREATION_DATE  = 
ORIGINATOR     = 

OBJECT_NAME    = STARLINK-35444
OBJECT_ID      = 2025-263AC
CENTER_NAME    = EARTH
REF_FRAME      = TEME
TIME_SYSTEM    = UTC
MEAN_ELEMENT_THEORY = SGP/SGP4

EPOCH          = 2025-12-08T14:00:01.999872
MEAN_MOTION    = 15.50513491
ECCENTRICITY   = .00015535
INCLINATION    = 43.0001
RA_OF_ASC_NODE = 149.3535
ARG_OF_PERICENTER = 280.7850
MEAN_ANOMALY   = 221.9494

EPHEMERIS_TYPE = 0
CLASSIFICATION_TYPE = U
NORAD_CAT_ID   = 66511
ELEMENT_SET_NO = 999
REV_AT_EPOCH   = 496
BSTAR          = .17120789E-2
MEAN_MOTION_DOT = .101169E-2
MEAN_MOTION_DDOT = 0

CCSDS_OMM_VERS = 2.0
CREATION_DATE  = 
ORIGINATOR     = 

OBJECT_NAME    = STARLINK-35366
OBJECT_ID      = 2025-263AD
CENTER_NAME    = EARTH
REF_FRAME      = TEME
TIME_SYSTEM    = UTC
MEAN_ELEMENT_THEORY = SGP/SGP4

EPOCH          = 2025-12-08T14:00:01.999872
MEAN_MOTION    = 15.50557534
ECCENTRICITY   = .00015293
INCLINATION    = 43.0000
RA_OF_ASC_NODE = 149.3437
ARG_OF_PERICENTER = 285.0300
MEAN_ANOMALY   = 221.5350

EPHEMERIS_TYPE = 0
CLASSIFICATION_TYPE = U
NORAD_CAT_ID   = 66512
ELEMENT_SET_NO = 999
REV_AT_EPOCH   = 496
BSTAR          = .54337924E-3
MEAN_MOTION_DOT = .3164E-3
MEAN_MOTION_DDOT = 0

CCSDS_OMM_VERS = 2.0
CREATION_DATE  = 
ORIGINATOR     = 

OBJECT_NAME    = STARLINK-35692
OBJECT_ID      = 2025-263AE
CENTER_NAME    = EARTH
REF_FRAME      = TEME
TIME_SYSTEM    = UTC
MEAN_ELEMENT_THEORY = SGP/SGP4

EPOCH          = 2025-12-08T14:00:01.999872
MEAN_MOTION    = 15.50593785
ECCENTRICITY   = .00013568
INCLINATION    = 43.0000
RA_OF_ASC_NODE = 149.3583
ARG_OF_PERICENTER = 266.5536
MEAN_ANOMALY   = 234.2890

EPHEMERIS_TYPE = 0
CLASSIFICATION_TYPE = U
NORAD_CAT_ID   = 66513
ELEMENT_SET_NO = 999
REV_AT_EPOCH   = 496
BSTAR          = -.12232825E-2
MEAN_MOTION_DOT = -.71491E-3
MEAN_MOTION_DDOT = 0

CCSDS_OMM_VERS = 2.0
CREATION_DATE  = 
ORIGINATOR     = 

OBJECT_NAME    = SENTINEL-6B
OBJECT_ID      = 2025-264A
CENTER_NAME    = EARTH
REF_FRAME      = TEME
TIME_SYSTEM    = UTC
MEAN_ELEMENT_THEORY = SGP/SGP4

EPOCH          = 2025-12-08T14:01:41.053152
MEAN_MOTION    = 12.84032003
ECCENTRICITY   = .00210395
INCLINATION    = 66.0385
RA_OF_ASC_NODE = 171.0841
ARG_OF_PERICENTER = 268.3306
MEAN_ANOMALY   = 91.5301

EPHEMERIS_TYPE = 0
CLASSIFICATION_TYPE = U
NORAD_CAT_ID   = 66514
ELEMENT_SET_NO = 999
REV_AT_EPOCH   = 275
BSTAR          = .11898365E-3
MEAN_MOTION_DOT = -.33E-6
MEAN_MOTION_DDOT = 0

CCSDS_OMM_VERS = 2.0
CREATION_DATE  = 
ORIGINATOR     = 

OBJECT_NAME    = STARLINK-35924
OBJECT_ID      = 2025-265A
CENTER_NAME    = EARTH
REF_FRAME      = TEME
TIME_SYSTEM    = UTC
MEAN_ELEMENT_THEORY = SGP/SGP4

EPOCH          = 2025-12-08T14:00:01.999872
MEAN_MOTION    = 15.56463649
ECCENTRICITY   = .00012795
INCLINATION    = 43.0003
RA_OF_ASC_NODE = 78.3649
ARG_OF_PERICENTER = 273.4152
MEAN_ANOMALY   = 20.3255

EPHEMERIS_TYPE = 0
CLASSIFICATION_TYPE = U
NORAD_CAT_ID   = 66516
ELEMENT_SET_NO = 999
REV_AT_EPOCH   = 430
BSTAR          = -.31947672E-1
MEAN_MOTION_DOT = -.2069911E-1
MEAN_MOTION_DDOT = 0

CCSDS_OMM_VERS = 2.0
CREATION_DATE  = 
ORIGINATOR     = 

OBJECT_NAME    = STARLINK-35937
OBJECT_ID      = 2025-265B
CENTER_NAME    = EARTH
REF_FRAME      = TEME
TIME_SYSTEM    = UTC
MEAN_ELEMENT_THEORY = SGP/SGP4

EPOCH          = 2025-12-08T14:00:01.999872
MEAN_MOTION    = 15.56466364
ECCENTRICITY   = .00014723
INCLINATION    = 43.0001
RA_OF_ASC_NODE = 78.3606
ARG_OF_PERICENTER = 281.0793
MEAN_ANOMALY   = 14.5762

EPHEMERIS_TYPE = 0
CLASSIFICATION_TYPE = U
NORAD_CAT_ID   = 66517
ELEMENT_SET_NO = 999
REV_AT_EPOCH   = 432
BSTAR          = -.32022088E-1
MEAN_MOTION_DOT = -.2074524E-1
MEAN_MOTION_DDOT = 0

CCSDS_OMM_VERS = 2.0
CREATION_DATE  = 
ORIGINATOR     = 

OBJECT_NAME    = STARLINK-35962
OBJECT_ID      = 2025-265C
CENTER_NAME    = EARTH
REF_FRAME      = TEME
TIME_SYSTEM    = UTC
MEAN_ELEMENT_THEORY = SGP/SGP4

EPOCH          = 2025-12-08T14:00:01.999872
MEAN_MOTION    = 15.56464360
ECCENTRICITY   = .00012755
INCLINATION    = 43.0001
RA_OF_ASC_NODE = 78.3555
ARG_OF_PERICENTER = 281.7424
MEAN_ANOMALY   = 15.8293

EPHEMERIS_TYPE = 0
CLASSIFICATION_TYPE = U
NORAD_CAT_ID   = 66518
ELEMENT_SET_NO = 999
REV_AT_EPOCH   = 432
BSTAR          = -.3195017E-1
MEAN_MOTION_DOT = -.2070102E-1
MEAN_MOTION_DDOT = 0

CCSDS_OMM_VERS = 2.0
CREATION_DATE  = 
ORIGINATOR     = 

OBJECT_NAME    = STARLINK-35931
OBJECT_ID      = 2025-265D
CENTER_NAME    = EARTH
REF_FRAME      = TEME
TIME_SYSTEM    = UTC
MEAN_ELEMENT_THEORY = SGP/SGP4

EPOCH          = 2025-12-08T14:00:01.999872
MEAN_MOTION    = 15.56463228
ECCENTRICITY   = .0001267
INCLINATION    = 43.0003
RA_OF_ASC_NODE = 78.3505
ARG_OF_PERICENTER = 279.4524
MEAN_ANOMALY   = 20.0370

EPHEMERIS_TYPE = 0
CLASSIFICATION_TYPE = U
NORAD_CAT_ID   = 66519
ELEMENT_SET_NO = 999
REV_AT_EPOCH   = 432
BSTAR          = -.31911727E-1
MEAN_MOTION_DOT = -.2067797E-1
MEAN_MOTION_DDOT = 0

CCSDS_OMM_VERS = 2.0
CREATION_DATE  = 
ORIGINATOR     = 

OBJECT_NAME    = STARLINK-35952
OBJECT_ID      = 2025-265E
CENTER_NAME    = EARTH
REF_FRAME      = TEME
TIME_SYSTEM    = UTC
MEAN_ELEMENT_THEORY = SGP/SGP4

EPOCH          = 2025-12-08T14:00:01.999872
MEAN_MOTION    = 15.56460548
ECCENTRICITY   = .00012834
INCLINATION    = 43.0002
RA_OF_ASC_NODE = 78.3455
ARG_OF_PERICENTER = 281.4946
MEAN_ANOMALY   = 19.9140

EPHEMERIS_TYPE = 0
CLASSIFICATION_TYPE = U
NORAD_CAT_ID   = 66520
ELEMENT_SET_NO = 999
REV_AT_EPOCH   = 432
BSTAR          = -.31882748E-1
MEAN_MOTION_DOT = -.2065947E-1
MEAN_MOTION_DDOT = 0

CCSDS_OMM_VERS = 2.0
CREATION_DATE  = 
ORIGINATOR     = 

OBJECT_NAME    = STARLINK-35915
OBJECT_ID      = 2025-265F
CENTER_NAME    = EARTH
REF_FRAME      = TEME
TIME_SYSTEM    = UTC
MEAN_ELEMENT_THEORY = SGP/SGP4

EPOCH          = 2025-12-08T14:00:01.999872
MEAN_MOTION    = 15.56466829
ECCENTRICITY   = .00012996
INCLINATION    = 43.0002
RA_OF_ASC_NODE = 78.3405
ARG_OF_PERICENTER = 276.9068
MEAN_ANOMALY   = 26.4182

EPHEMERIS_TYPE = 0
CLASSIFICATION_TYPE = U
NORAD_CAT_ID   = 66521
ELEMENT_SET_NO = 999
REV_AT_EPOCH   = 432
BSTAR          = -.32045071E-1
MEAN_MOTION_DOT = -.207577E-1
MEAN_MOTION_DDOT = 0

CCSDS_OMM_VERS = 2.0
CREATION_DATE  = 
ORIGINATOR     = 

OBJECT_NAME    = STARLINK-35946
OBJECT_ID      = 2025-265G
CENTER_NAME    = EARTH
REF_FRAME      = TEME
TIME_SYSTEM    = UTC
MEAN_ELEMENT_THEORY = SGP/SGP4

EPOCH          = 2025-12-08T14:00:01.999872
MEAN_MOTION    = 15.56466535
ECCENTRICITY   = .00015211
INCLINATION    = 43.0001
RA_OF_ASC_NODE = 78.3358
ARG_OF_PERICENTER = 282.0402
MEAN_ANOMALY   = 23.2019

EPHEMERIS_TYPE = 0
CLASSIFICATION_TYPE = U
NORAD_CAT_ID   = 66522
ELEMENT_SET_NO = 999
REV_AT_EPOCH   = 432
BSTAR          = -.32063128E-1
MEAN_MOTION_DOT = -.2076938E-1
MEAN_MOTION_DDOT = 0

CCSDS_OMM_VERS = 2.0
CREATION_DATE  = 
ORIGINATOR     = 

OBJECT_NAME    = STARLINK-35969
OBJECT_ID      = 2025-265H
CENTER_NAME    = EARTH
REF_FRAME      = TEME
TIME_SYSTEM    = UTC
MEAN_ELEMENT_THEORY = SGP/SGP4

EPOCH          = 2025-12-08T14:00:01.999872
MEAN_MOTION    = 15.56466031
ECCENTRICITY   = .00015147
INCLINATION    = 43.0004
RA_OF_ASC_NODE = 78.3310
ARG_OF_PERICENTER = 280.0427
MEAN_ANOMALY   = 27.1153

EPHEMERIS_TYPE = 0
CLASSIFICATION_TYPE = U
NORAD_CAT_ID   = 66523
ELEMENT_SET_NO = 999
REV_AT_EPOCH   = 432
BSTAR          = -.32012069E-1
MEAN_MOTION_DOT = -.207395E-1
MEAN_MOTION_DDOT = 0

